NORAD_CAT_ID,OBJECT_NAME,OBJECT_TYPE,EPOCH,MEAN_MOTION,ECCENTRICITY,INCLINATION,RA_OF_ASC_NODE,ARG_OF_PERICENTER,MEAN_ANOMALY,BSTAR,MEAN_MOTION_DOT,MEAN_MOTION_DDOT,TLE_LINE0,TLE_LINE1,TLE_LINE2,SEMIMAJOR_AXIS,PERIOD,APOGEE,PERIGEE,DECAYED
49159.0,STARLINK-3056,PAYLOAD,2024-07-17 14:00:19,14.98320945,0.0002685,70.0017,7.5366,263.9198,96.1655,-3.1987e-05,-4.74e-06,0.0,0 STARLINK-3056,1 49159U 21082AF  24199.58356055 -.00000474  00000-0 -31987-4 0  9992,2 49159  70.0017   7.5366 0002685 263.9198  96.1655 14.98320945157180,6950.221,96.108,573.952,570.22,0.0
49159.0,STARLINK-3056,PAYLOAD,2024-07-17 20:24:51,14.98321666,0.000268,70.0019,6.8642,263.543,96.5424,-1.5586e-05,-2.79e-06,0.0,0 STARLINK-3056,1 49159U 21082AF  24199.85060042 -.00000279  00000-0 -15586-4 0  9990,2 49159  70.0019   6.8642 0002680 263.5430  96.5424 14.98321666157225,6950.219,96.108,573.946,570.221,0.0
49159.0,STARLINK-3056,PAYLOAD,2024-07-18 12:26:11,14.98335167,0.0002784,70.0013,5.1807,268.3989,91.6851,6.4247e-05,6.74e-06,0.0,0 STARLINK-3056,1 49159U 21082AF  24200.51819129  .00000674  00000-0  64247-4 0  9999,2 49159  70.0013   5.1807 0002784 268.3989  91.6851 14.98335167157323,6950.177,96.107,573.977,570.107,0.0
49159.0,STARLINK-3056,PAYLOAD,2024-07-18 14:02:19,14.98335216,0.0002774,70.0015,5.0125,268.9657,91.1184,5.1708e-05,5.24e-06,0.0,0 STARLINK-3056,1 49159U 21082AF  24200.58495155  .00000524  00000-0  51708-4 0  9997,2 49159  70.0015   5.0125 0002774 268.9657  91.1184 14.98335216157334,6950.177,96.107,573.97,570.114,0.0
49159.0,STARLINK-3056,PAYLOAD,2024-07-18 20:26:51,14.9833718,0.0002763,70.0016,4.3392,267.016,93.0683,0.00010134,1.117e-05,0.0,0 STARLINK-3056,1 49159U 21082AF  24200.85198883  .00001117  00000-0  10134-3 0  9991,2 49159  70.0016   4.3392 0002763 267.0160  93.0683 14.98337180157371,6950.171,96.107,573.956,570.115,0.0
49159.0,STARLINK-3056,PAYLOAD,2024-07-19 12:28:12,14.98327362,0.0002724,70.0007,2.6538,272.5426,87.5421,0.00019145,2.192e-05,0.0,0 STARLINK-3056,1 49159U 21082AF  24201.51959214  .00002192  00000-0  19145-3 0  9993,2 49159  70.0007   2.6538 0002724 272.5426  87.5421 14.98327362157477,6950.201,96.107,573.959,570.173,0.0
49159.0,STARLINK-3056,PAYLOAD,2024-07-19 14:04:20,14.98330253,0.0002689,70.0022,2.485,259.3277,100.758,0.00024554,2.838e-05,0.0,0 STARLINK-3056,1 49159U 21082AF  24201.58634811  .00002838  00000-0  24554-3 0  9990,2 49159  70.0022   2.4850 0002689 259.3277 100.7580 14.98330253157484,6950.192,96.107,573.926,570.188,0.0
49159.0,STARLINK-3056,PAYLOAD,2024-07-19 20:28:51,14.98345526,0.0002779,70.0014,1.8129,266.7705,93.3136,0.00032973,3.845e-05,0.0,0 STARLINK-3056,1 49159U 21082AF  24201.85337768  .00003845  00000-0  32973-3 0  9994,2 49159  70.0014   1.8129 0002779 266.7705  93.3136 14.98345526157523,6950.145,96.106,573.941,570.078,0.0
49159.0,STARLINK-3056,PAYLOAD,2024-07-20 12:30:13,14.98336104,0.0002447,70.0011,0.1308,277.7218,82.3663,9.5504e-05,1.047e-05,0.0,0 STARLINK-3056,1 49159U 21082AF  24202.52098813  .00001047  00000-0  95504-4 0  9996,2 49159  70.0011   0.1308 0002447 277.7218  82.3663 14.98336104157620,6950.174,96.107,573.74,570.338,0.0
49159.0,STARLINK-3056,PAYLOAD,2024-07-20 14:06:21,14.98333035,0.0003277,70.0014,359.9626,265.0941,94.9844,5.6741e-05,5.84e-06,0.0,0 STARLINK-3056,1 49159U 21082AF  24202.58774887  .00000584  00000-0  56741-4 0  9999,2 49159  70.0014 359.9626 0003277 265.0941  94.9844 14.98333035157637,6950.184,96.107,574.326,569.771,0.0
49159.0,STARLINK-3056,PAYLOAD,2024-07-20 20:30:53,14.98332012,0.0002807,70.0014,359.2878,269.1195,90.9642,-1.547e-05,-2.78e-06,0.0,0 STARLINK-3056,1 49159U 21082AF  24202.85479047 -.00000278  00000-0 -15470-4 0  9995,2 49159  70.0014 359.2878 0002807 269.1195  90.9642 14.98332012157673,6950.187,96.107,574.003,570.101,0.0
49159.0,STARLINK-3056,PAYLOAD,2024-07-21 12:32:14,14.98332462,0.0002853,70.0015,357.6049,274.2851,85.7982,-0.00015898,-1.989e-05,0.0,0 STARLINK-3056,1 49159U 21082AF  24203.52239514 -.00001989  00000-0 -15898-3 0  9996,2 49159  70.0015 357.6049 0002853 274.2851  85.7982 14.98332462157772,6950.185,96.107,574.033,570.067,0.0
49159.0,STARLINK-3056,PAYLOAD,2024-07-21 14:08:23,14.98332117,0.0002855,70.0016,357.4365,273.7579,86.3253,-0.00015761,-1.973e-05,0.0,0 STARLINK-3056,1 49159U 21082AF  24203.58915519 -.00001973  00000-0 -15761-3 0  9990,2 49159  70.0016 357.4365 0002855 273.7579  86.3253 14.98332117157781,6950.186,96.107,574.036,570.067,0.0
49159.0,STARLINK-3056,PAYLOAD,2024-07-21 20:32:56,14.98290852,0.0002775,70.0019,356.7632,277.028,83.0563,0.00071164,8.4e-05,0.0,0 STARLINK-3056,1 49159U 21082AF  24203.85620701  .00008400  00000-0  71164-3 0  9995,2 49159  70.0019 356.7632 0002775 277.0280  83.0563 14.98290852157822,6950.314,96.11,574.108,570.25,0.0
49159.0,STARLINK-3056,PAYLOAD,2024-07-22 09:21:59,14.98325937,0.0002821,70.0019,355.4167,278.0287,82.0552,0.00013893,1.565e-05,0.0,0 STARLINK-3056,1 49159U 21082AF  24204.39027200  .00001565  00000-0  13893-3 0  9990,2 49159  70.0019 355.4167 0002821 278.0287  82.0552 14.98325937157900,6950.205,96.107,574.031,570.11,0.0
49159.0,STARLINK-3056,PAYLOAD,2024-07-23 15:48:32,14.98331402,0.0002971,70.0016,352.2191,269.637,90.4449,0.0001487,1.682e-05,0.0,0 STARLINK-3056,1 49159U 21082AF  24205.65871085  .00001682  00000-0  14870-3 0  9994,2 49159  70.0016 352.2191 0002971 269.6370  90.4449 14.98331402158097,6950.189,96.107,574.118,569.989,0.0
49159.0,STARLINK-3056,PAYLOAD,2024-07-25 09:28:02,14.98331902,0.0003001,70.0014,347.8426,269.8751,90.2064,2.7411e-05,2.34e-06,0.0,0 STARLINK-3056,1 49159U 21082AF  24207.39447047  .00000234  00000-0  27411-4 0  9992,2 49159  70.0014 347.8426 0003001 269.8751  90.2064 14.98331902158351,6950.187,96.107,574.138,569.966,0.0
49159.0,STARLINK-3056,PAYLOAD,2024-07-26 09:30:02,14.98335974,0.000309,70.0016,345.3173,272.7764,87.3042,9.7804e-05,1.074e-05,0.0,0 STARLINK-3056,1 49159U 21082AF  24208.39586682  .00001074  00000-0  97804-4 0  9998,2 49159  70.0016 345.3173 0003090 272.7764  87.3042 14.98335974158503,6950.174,96.107,574.187,569.892,0.0
49159.0,STARLINK-3056,PAYLOAD,2024-07-26 17:30:42,14.98341634,0.0003095,70.0013,344.4757,270.3219,89.7585,0.00014775,1.671e-05,0.0,0 STARLINK-3056,1 49159U 21082AF  24208.72966066  .00001671  00000-0  14775-3 0  9991,2 49159  70.0013 344.4757 0003095 270.3219  89.7585 14.98341634158555,6950.157,96.106,574.173,569.871,0.0
49159.0,STARLINK-3056,PAYLOAD,2024-07-27 09:32:05,14.9832176,0.000289,70.0011,342.7923,272.1214,87.9614,-7.0152e-05,-9.3e-06,0.0,0 STARLINK-3056,1 49159U 21082AF  24209.39728042 -.00000930  00000-0 -70152-4 0  9996,2 49159  70.0011 342.7923 0002890 272.1214  87.9614 14.98321760158658,6950.218,96.108,574.092,570.075,0.0
49159.0,STARLINK-3056,PAYLOAD,2024-07-27 19:08:52,14.98333229,0.0002764,70.0005,341.782,272.6235,87.4607,6.4576e-05,6.78e-06,0.0,0 STARLINK-3056,1 49159U 21082AF  24209.79783115  .00000678  00000-0  64576-4 0  9992,2 49159  70.0005 341.7820 0002764 272.6235  87.4607 14.98333229158711,6950.183,96.107,573.969,570.127,0.0
49159.0,STARLINK-3056,PAYLOAD,2024-07-28 19:10:52,14.9834149,0.0002808,70.0021,339.2576,271.978,88.1057,7.558e-05,8.09e-06,0.0,0 STARLINK-3056,1 49159U 21082AF  24210.79922452  .00000809  00000-0  75580-4 0  9996,2 49159  70.0021 339.2576 0002808 271.9780  88.1057 14.98341490158867,6950.157,96.106,573.974,570.071,0.0
49159.0,STARLINK-3056,PAYLOAD,2024-07-29 01:35:25,14.98333218,0.0002763,70.002,338.5841,272.2221,87.8621,0.00019068,2.183e-05,0.0,0 STARLINK-3056,1 49159U 21082AF  24211.06626774  .00002183  00000-0  19068-3 0  9990,2 49159  70.0020 338.5841 0002763 272.2221  87.8621 14.98333218158904,6950.183,96.107,573.968,570.128,0.0
49159.0,STARLINK-3056,PAYLOAD,2024-07-29 09:36:05,14.98337407,0.000294,70.0021,337.7445,262.4729,97.6097,0.00010272,1.133e-05,0.0,0 STARLINK-3056,1 49159U 21082AF  24211.40006761  .00001133  00000-0  10272-3 0  9998,2 49159  70.0021 337.7445 0002940 262.4729  97.6097 14.98337407158952,6950.17,96.107,574.078,569.992,0.0
49159.0,STARLINK-3056,PAYLOAD,2024-07-30 01:37:26,14.98341379,0.0002856,70.0019,336.0604,270.7807,89.3025,-6.0345e-06,-1.65e-06,0.0,0 STARLINK-3056,1 49159U 21082AF  24212.06766538 -.00000165  00000-0 -60345-5 0  9990,2 49159  70.0019 336.0604 0002856 270.7807  89.3025 14.98341379159057,6950.158,96.106,574.008,570.038,0.0
49159.0,STARLINK-3056,PAYLOAD,2024-07-30 09:38:06,14.9833204,0.0002776,70.0024,335.2194,269.2466,90.8375,6.4175e-05,6.73e-06,0.0,0 STARLINK-3056,1 49159U 21082AF  24212.40146956  .00000673  00000-0  64175-4 0  9990,2 49159  70.0024 335.2194 0002776 269.2466  90.8375 14.98332040159109,6950.187,96.107,573.981,570.122,0.0
49159.0,STARLINK-3056,PAYLOAD,2024-07-30 14:26:30,14.98334721,0.0002667,70.0024,334.7145,263.7071,96.3784,0.00010369,1.145e-05,0.0,0 STARLINK-3056,1 49159U 21082AF  24212.60174663  .00001145  00000-0  10369-3 0  9998,2 49159  70.0024 334.7145 0002667 263.7071  96.3784 14.98334721159135,6950.178,96.107,573.897,570.19,0.0
49159.0,STARLINK-3056,PAYLOAD,2024-07-30 17:38:46,14.98335402,0.0002697,70.0019,334.3778,263.5667,96.5185,8.3852e-05,9.08e-06,0.0,0 STARLINK-3056,1 49159U 21082AF  24212.73526613  .00000908  00000-0  83852-4 0  9992,2 49159  70.0019 334.3778 0002697 263.5667  96.5185 14.98335402159155,6950.176,96.107,573.916,570.167,0.0
49159.0,STARLINK-3056,PAYLOAD,2024-07-31 12:52:24,14.98324566,0.0002874,70.0021,332.3582,268.7744,91.3086,3.8137e-05,3.62e-06,0.0,0 STARLINK-3056,1 49159U 21082AF  24213.53639390  .00000362  00000-0  38137-4 0  9998,2 49159  70.0021 332.3582 0002874 268.7744  91.3086 14.98324566159274,6950.21,96.107,574.072,570.077,0.0
49159.0,STARLINK-3056,PAYLOAD,2024-07-31 14:28:31,14.98335177,0.0002808,70.0009,332.1863,262.7156,97.3684,-4.7174e-05,-6.56e-06,0.0,0 STARLINK-3056,1 49159U 21082AF  24213.60314783 -.00000656  00000-0 -47174-4 0  9991,2 49159  70.0009 332.1863 0002808 262.7156  97.3684 14.98335177159289,6950.177,96.107,573.993,570.09,0.0
